ARIANE 40 R/B           
1 20443U 90005H   26021.42009770  .00000612  00000+0  20835-3 0  9996
2 20443  98.3181  83.4659 0009789 353.8375   6.2691 14.39832780886008
DELTA 2 R/B(1)          
1 20453U 90008B   26021.37111249  .00067210  00000+0  95505-3 0  9992
2 20453  35.6060 123.8550 0100841 180.8329 179.2248 15.49412232918773
COSMOS 2058             
1 20465U 90010A   26021.23541475  .00008635  00000+0  51654-3 0  9994
2 20465  82.4665  94.1753 0011045 131.5236 228.6944 15.10871293935077
SL-14 R/B               
1 20466U 90010B   26021.27126597  .00000896  00000+0  10567-3 0  9992
2 20466  82.5046 311.9237 0021399  95.5692 264.7964 14.83517678921450
SL-14 R/B               
1 20511U 90018B   26021.37835017  .00000747  00000+0  90913-4 0  9995
2 20511  82.5205 267.3197 0014976 246.0234 113.9412 14.82093344915572
HST                     
1 20580U 90037B   26021.23272574  .00014799  00000+0  50735-3 0  9999
2 20580  28.4681   3.5515 0001639 306.9911  53.0534 15.28654530766045
SL-16 R/B               
1 20625U 90046B   26021.47499423 -.00000114  00000+0 -34148-4 0  9998
2 20625  70.9995  37.0715 0013834   5.6699 354.4578 14.15008022841713
COSMOS 2084             
1 20663U 90055A   26021.49626903  .00006097  00000+0  43486-3 0  9995
2 20663  62.7909 136.5004 0024860 180.8373 179.2690 15.05311797929217
SL-6 R/B(2)             
1 20666U 90055D   26021.48176695  .00004642  00000+0  35374-3 0  9996
2 20666  62.7835  54.3555 0017933 331.7704  28.2422 15.03303693931093
SL-8 R/B                
1 20775U 90078B   26021.24169082  .00032099  00000+0  96528-3 0  9993
2 20775  82.9055 293.9219 0368454 172.9780 187.6816 14.87351835802249
SL-8 R/B                
1 21088U 91006B   26021.47662659 -.00000007  00000+0 -22929-4 0  9997
2 21088  82.9410 205.1531 0022775 164.5657 224.4442 13.77491727757570
OKEAN-3                 
1 21397U 91039A   26021.46111210  .00006409  00000+0  45588-3 0  9992
2 21397  82.5152  22.5842 0015911 126.0291 234.2413 15.04397321857934
COSMOS 2151             
1 21422U 91042A   26021.45397019  .00004392  00000+0  35175-3 0  9997
2 21422  82.4990 129.2302 0011902 213.6268 146.4202 14.99889639856111
SL-14 R/B               
1 21423U 91042B   26021.42149188  .00000720  00000+0  88077-4 0  9998
2 21423  82.4920 264.5167 0018073  40.3443 319.9108 14.81781393846078
ERS-1                   
1 21574U 91050A   26021.49883122  .00000659  00000+0  22541-3 0  9998
2 21574  98.7897  38.5476 0031634 344.1968  15.8229 14.39403560808945
ARIANE 40 R/B           
1 21610U 91050F   26021.38455052  .00000691  00000+0  21965-3 0  9999
2 21610  98.2107  75.3740 0002694 196.2355 163.8749 14.42851632812170
INTERCOSMOS 25          
1 21819U 91086A   26021.34818588  .00001163  00000+0  22943-3 0  9994
2 21819  82.6088 338.6183 1486071 218.9547 129.4779 12.11867135490951
SL-8 R/B                
1 21876U 92008B   26021.32171626  .00000123  00000+0  11160-3 0  9999
2 21876  82.9289 303.0103 0033327 267.2194 210.4380 13.75967269702904
SL-8 R/B                
1 21938U 92020B   26021.48285764  .00000205  00000+0  19676-3 0  9999
2 21938  82.9301 188.8036 0030169  70.5941 343.2256 13.75540215694644
USA 81                  
1 21949U 92023A   26021.43467162  .00000388  00000+0  13642-3 0  9992
2 21949  85.0109 158.6854 0001974 116.2302 243.9093 14.32346040 88028
COSMOS 2219             
1 22219U 92076A   26021.47986482 -.00000070  00000+0 -12176-4 0  9998
2 22219  71.0615 116.7627 0020841 272.5339  87.3397 14.14081360711705
SL-16 R/B               
1 22220U 92076B   26021.48704336 -.00000094  00000+0 -22808-4 0  9996
2 22220  71.0006 287.8061 0012556 177.9148 354.5447 14.16850628715143
COSMOS 2221             
1 22236U 92080A   26021.35162009  .00004694  00000+0  41587-3 0  9991
2 22236  82.5069 324.4076 0014611 359.4450   0.6753 14.95966877773714
SL-16 R/B               
1 22285U 92093B   26021.46107720  .00000269  00000+0  16207-3 0  9995
2 22285  71.0222 103.4146 0004164 347.1338  12.9678 14.15441619706471
COSMOS 2228             
1 22286U 92094A   26021.46572882  .00005379  00000+0  46416-3 0  9994
2 22286  82.5184 282.5245 0019545  99.2856 261.0578 14.96952168768990
SL-16 R/B               
1 22566U 93016B   26021.21406904  .00000268  00000+0  16184-3 0  9995
2 22566  71.0087 314.8963 0009055  24.3308 335.8241 14.15294883695459
COSMOS 2242             
1 22626U 93024A   26021.29422867  .00005264  00000+0  46195-3 0  9991
2 22626  82.5218 312.0377 0018013 102.7434 257.5802 14.96313335773300
SL-16 R/B               
1 22803U 93059B   26021.54026748  .00000039  00000+0  43079-4 0  9996
2 22803  70.9908 110.5591 0019557 280.6464  79.2457 14.17223788672854
ARIANE 40 R/B           
1 22830U 93061H   26021.21342552  .00000508  00000+0  20179-3 0  9993
2 22830  98.5014  91.0144 0011677  67.9300 292.3123 14.32830996687301
COSMOS 2278             
1 23087U 94023A   26021.42470370  .00000059  00000+0  55353-4 0  9994
2 23087  71.0541 273.9847 0006406 104.1608 256.0226 14.14366432638123
SL-16 R/B               
1 23088U 94023B   26021.49261894 -.00000005  00000+0  22032-4 0  9991
2 23088  70.9998 170.0038 0003868 330.1775  29.9127 14.15007019639416
SL-16 R/B               
1 23343U 94074B   26021.53291887  .00000899  00000+0  12733-3 0  9997
2 23343  97.7166  54.2489 0007128  26.6536 130.2812 14.79343526680275
SL-16 R/B               
1 23405U 94077B   26021.49266307  .00000073  00000+0  61996-4 0  9993
2 23405  70.9832  91.7853 0004842 253.7974 106.2616 14.15558314609557
ARIANE 40+ R/B          
1 23561U 95021B   26021.47999681  .00000642  00000+0  21898-3 0  9990
2 23561  98.4592  93.5795 0005658 285.1318  85.7093 14.39731626612458
SL-16 R/B               
1 23705U 95058B   26020.93196172 -.00000158  00000+0 -56341-4 0  9990
2 23705  71.0217 280.5223 0013358 202.8662 157.1867 14.15489526561096
SL-16 R/B               
1 24298U 96051B   26021.43225905  .00000091  00000+0  76204-4 0  9999
2 24298  70.7585 275.2682 0018661 212.2372 147.7608 14.12402275514979
ORBVIEW 2 (SEASTAR)     
1 24883U 97037A   26021.43805394  .00000585  00000+0  21978-3 0  9995
2 24883  98.8489 184.5195 0002154 174.3379 185.7830 14.35452067501692
SL-16 R/B               
1 25400U 98043G   26021.44126881  .00000150  00000+0  81721-4 0  9998
2 25400  98.8181 334.4929 0010362 146.2954 213.8886 14.26036510432255
SL-16 R/B               
1 25407U 98045B   26021.46083777  .00000360  00000+0  20573-3 0  9995
2 25407  71.0113 280.8958 0005218 101.3236 258.8474 14.16184331420416
ISS (ZARYA)             
1 25544U 98067A   26021.27150986  .00020903  00000+0  37939-3 0  9996
2 25544  51.6330 306.7706 0007779  41.9176 318.2407 15.49511068548986
CZ-4B R/B               
1 25732U 99025C   26021.38802150  .00000147  00000+0  91803-4 0  9998
2 25732  98.6713  66.7706 0038062 120.2849 250.7107 14.18254334381461
OKEAN-O                 
1 25860U 99039A   26020.99730522  .00001604  00000+0  21771-3 0  9999
2 25860  97.9541  81.3492 0001802 102.3879 257.7535 14.80243122427336
SL-16 R/B               
1 25861U 99039B   26021.42754939  .00001148  00000+0  15255-3 0  9990
2 25861  98.0064  80.5704 0015885  54.1278 306.1407 14.81653992429867
DELTA 2 R/B             
1 25876U 99041E   26021.50521206  .00004137  00000+0  70201-3 0  9990
2 25876  51.7630 129.6928 0503224 209.0199 148.1881 14.11594664356360
HELIOS 1B               
1 25977U 99064A   26021.42755745  .00003797  00000+0  42549-3 0  9990
2 25977  98.1740 282.2729 0001021 135.3215 224.8082 14.87474049678237
TERRA                   
1 25994U 99068A   26021.46921223  .00000946  00000+0  20212-3 0  9999
2 25994  97.9688  76.6845 0001902   6.0443 110.4889 14.60954774388189
SL-16 R/B               
1 26070U 00006B   26021.53459178  .00000013  00000+0  30956-4 0  9994
2 26070  71.0002 196.9847 0018764 255.0942 104.8103 14.15812620341885
TITAN 4B R/B            
1 26474U 00047B   26021.51423163  .00007452  00000+0  46916-3 0  9996
2 26474  67.9891 173.1213 0036848  94.7043 265.8316 15.09123141385799
ENVISAT                 
1 27386U 02009A   26021.47930536  .00000246  00000+0  93606-4 0  9994
2 27386  98.3655 336.2242 0001192  91.9527  19.6381 14.39016315252383
IDEFIX & ARIANE 42P R/B 
1 27422U 02021B   26021.43917437  .00000588  00000+0  24005-3 0  9995
2 27422  98.5828 320.6244 0011372 332.1082  27.9490 14.30985412237261
AQUA                    
1 27424U 02022A   26021.53721517  .00002456  00000+0  50140-3 0  9996
2 27424  98.4098 348.0744 0002012  70.1009  46.1672 14.61843091261845
CZ-4B R/B               
1 27432U 02024C   26021.38832343  .00000144  00000+0  97169-4 0  9995
2 27432  98.8937  75.0102 0050601 156.4130 214.5729 14.14537659222552
MIDORI II (ADEOS-II)    
1 27597U 02056A   26021.47985201  .00000619  00000+0  26127-3 0  9996
2 27597  98.7694 339.6569 0001887 109.5749 250.5637 14.29242091203552
H-2A R/B                
1 27601U 02056E   26021.54088205  .00000632  00000+0  23634-3 0  9993
2 27601  98.3121 343.7264 0069304 302.7616 170.5110 14.33718702207356
CZ-4B R/B               
1 28059U 03049C   26021.48321869  .00000842  00000+0  20456-3 0  9995
2 28059  98.6825  14.5570 0048582  17.1135 343.1686 14.54957997179739
CZ-2C R/B               
1 28222U 04012C   26020.68160886  .00089923  00000+0  11401-2 0  9995
2 28222  97.7344  81.6065 0017183 125.9329 234.3523 15.58979089196783
SL-16 R/B               
1 28353U 04021B   26021.29161749 -.00000106  00000+0 -30485-4 0  9990
2 28353  71.0028 331.9618 0002725 129.9299 230.2063 14.14592470116134
CZ-4B R/B               
1 28415U 04035C   26020.99167102  .00017840  00000+0  64161-3 0  9997
2 28415  97.3562  55.8223 0033956 135.8262 224.5698 15.28117949172623
CZ-2C R/B               
1 28480U 04046B   26021.50590830  .00000355  00000+0  14781-3 0  9993
2 28480  98.2002 299.4176 0138405 294.6853  63.9972 14.26969889101775
